GEOSCAN 3 (RS92S3)      
1 64893U 25155T   26197.25038229  .00009847  00000+0  27994-3 0  9995
2 64893  97.4554 167.4890 0008580  84.6185 275.6038 15.36330513 85312
INNOSAT 3 (RS92S0)      
1 64894U 25155U   26197.26566869  .00022624  00000+0  46648-3 0  9998
2 64894  97.4499 169.5052 0008204  88.1787 272.0402 15.45869735 85458
KNACKSAT-2              
1 67683U 98067XZ  26197.09018062  .00034521  00000+0  38453-3 0  9991
2 67683  51.6274 148.8130 0007935 330.8548  29.2002 15.62464930 24794
