OBJECT_NAME,OBJECT_ID,EPOCH,MEAN_MOTION,ECCENTRICITY,INCLINATION,RA_OF_ASC_NODE,ARG_OF_PERICENTER,MEAN_ANOMALY,EPHEMERIS_TYPE,CLASSIFICATION_TYPE,NORAD_CAT_ID,ELEMENT_SET_NO,REV_AT_EPOCH,BSTAR,MEAN_MOTION_DOT,MEAN_MOTION_DDOT
GEOSCAN 3 (RS92S3),2025-155T,2026-07-16T06:00:33.029856,15.36330513,.00085805,97.4554,167.4890,84.6185,275.6038,0,U,64893,999,8531,.27994148E-3,.9847E-4,0
INNOSAT 3 (RS92S0),2025-155U,2026-07-16T06:22:33.774816,15.45869735,.00082047,97.4499,169.5052,88.1787,272.0402,0,U,64894,999,8545,.46647781E-3,.22624E-3,0
KNACKSAT-2,1998-067XZ,2026-07-16T02:09:51.605568,15.62464930,.00079356,51.6274,148.8130,330.8548,29.2002,0,U,67683,999,2479,.38453065E-3,.34521E-3,0
